STARLINK-2667           
1 48663U 21044AB  26068.39219431 -.00000862  00000+0 -16987-4 0  9994
2 48663  53.1586 105.2090 0001341  84.4457 275.6697 15.30194564263927
BANDWAGON-2 OBJECT D    
1 62380U 24247D   26068.52261193  .00011259  00000+0  40119-3 0  9994
2 62380  44.9954 115.6710 0003488 351.1453   8.9368 15.29076102 67732
